{
  "type": "FeatureCollection",
  "features": [
    {
      "type": "Feature",
      "properties": {
        "norad_id": 33665,
        "name": "FENGYUN 1C DEB",
        "group": "fengyun-1c-debris",
        "lat": -31.434472066880815,
        "lon": 99.86994301486129,
        "alt_km": 1176.05225280153,
        "timestamp": "2025-12-02T17:49:12.314795+00:00",
        "meta_object_name": "FENGYUN 1C DEB",
        "meta_object_id": "1999-025DFA",
        "meta_epoch": "2025-11-30T14:39:07.562016",
        "meta_mean_motion": 14.03506601,
        "meta_eccentricity": 0.0456092,
        "meta_inclination": 99.0223,
        "meta_ra_of_asc_node": 92.1738,
        "meta_arg_of_pericenter": 126.0265,
        "meta_mean_anomaly": 238.4072,
        "meta_ephemeris_type": 0,
        "meta_classification_type": "U",
        "meta_norad_cat_id": 33665,
        "meta_element_set_no": 999,
        "meta_rev_at_epoch": 92421,
        "meta_bstar": 0.0013543,
        "meta_mean_motion_dot": 5.359e-05,
        "meta_mean_motion_ddot": 0,
        "tle_line1": "1 33665U 99025DFA 25334.61050419  .00005359  00000+0  13543-2 0  9990",
        "tle_line2": "2 33665  99.0223  92.1738 0456092 126.0265 238.4072 14.03506601924218"
      },
      "geometry": {
        "type": "Point",
        "coordinates": [
          99.86994301486129,
          -31.434472066880815
        ]
      }
    },
    {
      "type": "Feature",
      "properties": {
        "norad_id": 33673,
        "name": "FENGYUN 1C DEB",
        "group": "fengyun-1c-debris",
        "lat": -33.306941176488344,
        "lon": -162.79701929633376,
        "alt_km": 853.5057758646844,
        "timestamp": "2025-12-02T17:49:12.314804+00:00",
        "meta_object_name": "FENGYUN 1C DEB",
        "meta_object_id": "1999-025DFJ",
        "meta_epoch": "2025-12-02T09:58:21.700416",
        "meta_mean_motion": 13.95515302,
        "meta_eccentricity": 0.0106897,
        "meta_inclination": 99.3438,
        "meta_ra_of_asc_node": 23.082,
        "meta_arg_of_pericenter": 252.348,
        "meta_mean_anomaly": 120.3232,
        "meta_ephemeris_type": 0,
        "meta_classification_type": "U",
        "meta_norad_cat_id": 33673,
        "meta_element_set_no": 999,
        "meta_rev_at_epoch": 89758,
        "meta_bstar": 0.0009496,
        "meta_mean_motion_dot": 1.306e-05,
        "meta_mean_motion_ddot": 0,
        "tle_line1": "1 33673U 99025DFJ 25336.41552894  .00001306  00000+0  94960-3 0  9994",
        "tle_line2": "2 33673  99.3438  23.0820 0106897 252.3480 120.3232 13.95515302897584"
      },
      "geometry": {
        "type": "Point",
        "coordinates": [
          -162.79701929633376,
          -33.306941176488344
        ]
      }
    },
    {
      "type": "Feature",
      "properties": {
        "norad_id": 33674,
        "name": "FENGYUN 1C DEB",
        "group": "fengyun-1c-debris",
        "lat": 45.67032590615515,
        "lon": 18.70423328639998,
        "alt_km": 1087.1938797999546,
        "timestamp": "2025-12-02T17:49:12.314815+00:00",
        "meta_object_name": "FENGYUN 1C DEB",
        "meta_object_id": "1999-025DFK",
        "meta_epoch": "2025-12-02T01:53:41.579808",
        "meta_mean_motion": 13.76813989,
        "meta_eccentricity": 0.02100329,
        "meta_inclination": 98.6065,
        "meta_ra_of_asc_node": 27.0218,
        "meta_arg_of_pericenter": 268.727,
        "meta_mean_anomaly": 88.9815,
        "meta_ephemeris_type": 0,
        "meta_classification_type": "U",
        "meta_norad_cat_id": 33674,
        "meta_element_set_no": 999,
        "meta_rev_at_epoch": 88218,
        "meta_bstar": 0.0021724399,
        "meta_mean_motion_dot": 2.475e-05,
        "meta_mean_motion_ddot": 0,
        "tle_line1": "1 33674U 99025DFK 25336.07895347  .00002475  00000+0  21724-2 0  9995",
        "tle_line2": "2 33674  98.6065  27.0218 0210032 268.7270  88.9815 13.76813989882180"
      },
      "geometry": {
        "type": "Point",
        "coordinates": [
          18.70423328639998,
          45.67032590615515
        ]
      }
    },
    {
      "type": "Feature",
      "properties": {
        "norad_id": 33676,
        "name": "FENGYUN 1C DEB",
        "group": "fengyun-1c-debris",
        "lat": 60.55767722771452,
        "lon": -15.803100938663674,
        "alt_km": 648.7381580528418,
        "timestamp": "2025-12-02T17:49:12.314825+00:00",
        "meta_object_name": "FENGYUN 1C DEB",
        "meta_object_id": "1999-025DFM",
        "meta_epoch": "2025-12-01T19:47:27.437568",
        "meta_mean_motion": 14.35544933,
        "meta_eccentricity": 0.02051224,
        "meta_inclination": 99.0973,
        "meta_ra_of_asc_node": 359.7201,
        "meta_arg_of_pericenter": 101.3818,
        "meta_mean_anomaly": 261.0484,
        "meta_ephemeris_type": 0,
        "meta_classification_type": "U",
        "meta_norad_cat_id": 33676,
        "meta_element_set_no": 999,
        "meta_rev_at_epoch": 65154,
        "meta_bstar": 0.0001438987,
        "meta_mean_motion_dot": 4.71e-06,
        "meta_mean_motion_ddot": 0,
        "tle_line1": "1 33676U 99025DFM 25335.82462312  .00000471  00000+0  14390-3 0  9997",
        "tle_line2": "2 33676  99.0973 359.7201 0205122 101.3818 261.0484 14.35544933651542"
      },
      "geometry": {
        "type": "Point",
        "coordinates": [
          -15.803100938663674,
          60.55767722771452
        ]
      }
    },
    {
      "type": "Feature",
      "properties": {
        "norad_id": 33678,
        "name": "FENGYUN 1C DEB",
        "group": "fengyun-1c-debris",
        "lat": -51.20550792146953,
        "lon": 52.990042446126864,
        "alt_km": 630.9036636035189,
        "timestamp": "2025-12-02T17:49:12.314835+00:00",
        "meta_object_name": "FENGYUN 1C DEB",
        "meta_object_id": "1999-025DFP",
        "meta_epoch": "2025-12-02T03:07:23.149920",
        "meta_mean_motion": 14.47227945,
        "meta_eccentricity": 0.02047899,
        "meta_inclination": 99.0446,
        "meta_ra_of_asc_node": 40.9067,
        "meta_arg_of_pericenter": 268.4727,
        "meta_mean_anomaly": 89.2998,
        "meta_ephemeris_type": 0,
        "meta_classification_type": "U",
        "meta_norad_cat_id": 33678,
        "meta_element_set_no": 999,
        "meta_rev_at_epoch": 94942,
        "meta_bstar": 0.00079647457,
        "meta_mean_motion_dot": 3.725e-05,
        "meta_mean_motion_ddot": 0,
        "tle_line1": "1 33678U 99025DFP 25336.13012905  .00003725  00000+0  79647-3 0  9994",
        "tle_line2": "2 33678  99.0446  40.9067 0204789 268.4727  89.2998 14.47227945949421"
      },
      "geometry": {
        "type": "Point",
        "coordinates": [
          52.990042446126864,
          -51.20550792146953
        ]
      }
    },
    {
      "type": "Feature",
      "properties": {
        "norad_id": 33679,
        "name": "FENGYUN 1C DEB",
        "group": "fengyun-1c-debris",
        "lat": 14.65581848427496,
        "lon": 38.86076472541038,
        "alt_km": 484.6937024299823,
        "timestamp": "2025-12-02T17:49:12.314845+00:00",
        "meta_object_name": "FENGYUN 1C DEB",
        "meta_object_id": "1999-025DFQ",
        "meta_epoch": "2025-11-29T03:24:33.677280",
        "meta_mean_motion": 15.01717103,
        "meta_eccentricity": 0.01512375,
        "meta_inclination": 99.3493,
        "meta_ra_of_asc_node": 36.9971,
        "meta_arg_of_pericenter": 343.5245,
        "meta_mean_anomaly": 16.1087,
        "meta_ephemeris_type": 0,
        "meta_classification_type": "U",
        "meta_norad_cat_id": 33679,
        "meta_element_set_no": 999,
        "meta_rev_at_epoch": 93919,
        "meta_bstar": 0.0014003146,
        "meta_mean_motion_dot": 0.0002329,
        "meta_mean_motion_ddot": 0,
        "tle_line1": "1 33679U 99025DFQ 25333.14205645  .00023290  00000+0  14003-2 0  9991",
        "tle_line2": "2 33679  99.3493  36.9971 0151237 343.5245  16.1087 15.01717103939197"
      },
      "geometry": {
        "type": "Point",
        "coordinates": [
          38.86076472541038,
          14.65581848427496
        ]
      }
    },
    {
      "type": "Feature",
      "properties": {
        "norad_id": 33682,
        "name": "FENGYUN 1C DEB",
        "group": "fengyun-1c-debris",
        "lat": 18.212292570653776,
        "lon": 19.43624121078182,
        "alt_km": 804.1500306708904,
        "timestamp": "2025-12-02T17:49:12.314854+00:00",
        "meta_object_name": "FENGYUN 1C DEB",
        "meta_object_id": "1999-025DFT",
        "meta_epoch": "2025-11-30T01:46:04.764000",
        "meta_mean_motion": 14.2654663,
        "meta_eccentricity": 0.00294458,
        "meta_inclination": 99.4223,
        "meta_ra_of_asc_node": 19.6982,
        "meta_arg_of_pericenter": 118.141,
        "meta_mean_anomaly": 242.2748,
        "meta_ephemeris_type": 0,
        "meta_classification_type": "U",
        "meta_norad_cat_id": 33682,
        "meta_element_set_no": 999,
        "meta_rev_at_epoch": 91517,
        "meta_bstar": 0.0017024564,
        "meta_mean_motion_dot": 4.077e-05,
        "meta_mean_motion_ddot": 0,
        "tle_line1": "1 33682U 99025DFT 25334.07366625  .00004077  00000+0  17025-2 0  9993",
        "tle_line2": "2 33682  99.4223  19.6982 0029445 118.1410 242.2748 14.26546630915177"
      },
      "geometry": {
        "type": "Point",
        "coordinates": [
          19.43624121078182,
          18.212292570653776
        ]
      }
    }
  ]
}